{
  "links" : {
    "next" : "https://api.nasa.gov/neo/rest/v1/feed?start_date=2012-11-16&end_date=2012-11-16&detailed=true&api_key=t0TVs3DtDT2H8Oy2Zy8m2eVrNsAVKAexjcZXUckd",
    "prev" : "https://api.nasa.gov/neo/rest/v1/feed?start_date=2012-11-14&end_date=2012-11-14&detailed=true&api_key=t0TVs3DtDT2H8Oy2Zy8m2eVrNsAVKAexjcZXUckd",
    "self" : "https://api.nasa.gov/neo/rest/v1/feed?start_date=2012-11-15&end_date=2012-11-15&detailed=true&api_key=t0TVs3DtDT2H8Oy2Zy8m2eVrNsAVKAexjcZXUckd"
  },
  "element_count" : 8,
  "near_earth_objects" : {
    "2012-11-15" : [ {
      "links" : {
        "self" : "https://api.nasa.gov/neo/rest/v1/neo/3617711?api_key=t0TVs3DtDT2H8Oy2Zy8m2eVrNsAVKAexjcZXUckd"
      },
      "neo_reference_id" : "3617711",
      "name" : "(2012 VQ76)",
      "nasa_jpl_url" : "http://ssd.jpl.nasa.gov/sbdb.cgi?sstr=3617711",
      "absolute_magnitude_h" : 23.0,
      "estimated_diameter" : {
        "kilometers" : {
          "estimated_diameter_min" : 0.0667659413,
          "estimated_diameter_max" : 0.1492931834
        },
        "meters" : {
          "estimated_diameter_min" : 66.7659413495,
          "estimated_diameter_max" : 149.2931834393
        },
        "miles" : {
          "estimated_diameter_min" : 0.0414864197,
          "estimated_diameter_max" : 0.0927664547
        },
        "feet" : {
          "estimated_diameter_min" : 219.0483710172,
          "estimated_diameter_max" : 489.807047955
        }
      },
      "is_potentially_hazardous_asteroid" : false,
      "close_approach_data" : [ {
        "close_approach_date" : "2012-11-15",
        "epoch_date_close_approach" : 1352966400000,
        "relative_velocity" : {
          "kilometers_per_second" : "12.3339480307",
          "kilometers_per_hour" : "44402.2129103828",
          "miles_per_hour" : "27589.8083497876"
        },
        "miss_distance" : {
          "astronomical" : "0.234287092",
          "lunar" : "91.1376800537",
          "kilometers" : "35048852",
          "miles" : "21778346"
        },
        "orbiting_body" : "Earth"
      } ],
      "orbital_data" : {
        "orbit_id" : "8",
        "orbit_determination_date" : "2017-04-06 08:48:01",
        "orbit_uncertainty" : "7",
        "minimum_orbit_intersection" : ".235744",
        "jupiter_tisserand_invariant" : "3.103",
        "epoch_osculation" : "2458000.5",
        "eccentricity" : ".5329462834353862",
        "semi_major_axis" : "2.620340049473291",
        "inclination" : "21.51812240276276",
        "ascending_node_longitude" : "54.67269772790452",
        "orbital_period" : "1549.297816848631",
        "perihelion_distance" : "1.223839558769604",
        "perihelion_argument" : "358.075513672132",
        "aphelion_distance" : "4.016840540176977",
        "perihelion_time" : "2457796.382263002584",
        "mean_anomaly" : "47.42947709597728",
        "mean_motion" : ".232363330074435",
        "equinox" : "J2000"
      }
    }, {
      "links" : {
        "self" : "https://api.nasa.gov/neo/rest/v1/neo/2376788?api_key=t0TVs3DtDT2H8Oy2Zy8m2eVrNsAVKAexjcZXUckd"
      },
      "neo_reference_id" : "2376788",
      "name" : "376788 (2000 RV37)",
      "nasa_jpl_url" : "http://ssd.jpl.nasa.gov/sbdb.cgi?sstr=2376788",
      "absolute_magnitude_h" : 19.4,
      "estimated_diameter" : {
        "kilometers" : {
          "estimated_diameter_min" : 0.3503926411,
          "estimated_diameter_max" : 0.7835017643
        },
        "meters" : {
          "estimated_diameter_min" : 350.3926411083,
          "estimated_diameter_max" : 783.5017643338
        },
        "miles" : {
          "estimated_diameter_min" : 0.2177238258,
          "estimated_diameter_max" : 0.4868452748
        },
        "feet" : {
          "estimated_diameter_min" : 1149.5821926537,
          "estimated_diameter_max" : 2570.543928497
        }
      },
      "is_potentially_hazardous_asteroid" : false,
      "close_approach_data" : [ {
        "close_approach_date" : "2012-11-15",
        "epoch_date_close_approach" : 1352966400000,
        "relative_velocity" : {
          "kilometers_per_second" : "27.4656495433",
          "kilometers_per_hour" : "98876.3383559783",
          "miles_per_hour" : "61437.9114634688"
        },
        "miss_distance" : {
          "astronomical" : "0.4676364841",
          "lunar" : "181.9105987549",
          "kilometers" : "69957424",
          "miles" : "43469528"
        },
        "orbiting_body" : "Earth"
      } ],
      "orbital_data" : {
        "orbit_id" : "50",
        "orbit_determination_date" : "2017-09-25 06:52:15",
        "orbit_uncertainty" : "0",
        "minimum_orbit_intersection" : ".142079",
        "jupiter_tisserand_invariant" : "5.744",
        "epoch_osculation" : "2458000.5",
        "eccentricity" : ".4959912342275841",
        "semi_major_axis" : "1.040897018472719",
        "inclination" : "16.33057635494819",
        "ascending_node_longitude" : "330.3531337301125",
        "orbital_period" : "387.8913310500758",
        "perihelion_distance" : ".5246212215766226",
        "perihelion_argument" : "210.9411230103404",
        "aphelion_distance" : "1.557172815368815",
        "perihelion_time" : "2457849.006615601399",
        "mean_anomaly" : "140.6002506832402",
        "mean_motion" : ".9280949873910044",
        "equinox" : "J2000"
      }
    }, {
      "links" : {
        "self" : "https://api.nasa.gov/neo/rest/v1/neo/3409708?api_key=t0TVs3DtDT2H8Oy2Zy8m2eVrNsAVKAexjcZXUckd"
      },
      "neo_reference_id" : "3409708",
      "name" : "(2008 HV4)",
      "nasa_jpl_url" : "http://ssd.jpl.nasa.gov/sbdb.cgi?sstr=3409708",
      "absolute_magnitude_h" : 19.6,
      "estimated_diameter" : {
        "kilometers" : {
          "estimated_diameter_min" : 0.3195618867,
          "estimated_diameter_max" : 0.7145621017
        },
        "meters" : {
          "estimated_diameter_min" : 319.5618867213,
          "estimated_diameter_max" : 714.5621017269
        },
        "miles" : {
          "estimated_diameter_min" : 0.1985664891,
          "estimated_diameter_max" : 0.4440081677
        },
        "feet" : {
          "estimated_diameter_min" : 1048.4314204307,
          "estimated_diameter_max" : 2344.3639258298
        }
      },
      "is_potentially_hazardous_asteroid" : false,
      "close_approach_data" : [ {
        "close_approach_date" : "2012-11-15",
        "epoch_date_close_approach" : 1352966400000,
        "relative_velocity" : {
          "kilometers_per_second" : "10.8182161138",
          "kilometers_per_hour" : "38945.5780096199",
          "miles_per_hour" : "24199.2676249219"
        },
        "miss_distance" : {
          "astronomical" : "0.2517980406",
          "lunar" : "97.949432373",
          "kilometers" : "37668452",
          "miles" : "23406090"
        },
        "orbiting_body" : "Earth"
      } ],
      "orbital_data" : {
        "orbit_id" : "55",
        "orbit_determination_date" : "2017-09-23 06:50:00",
        "orbit_uncertainty" : "1",
        "minimum_orbit_intersection" : ".175219",
        "jupiter_tisserand_invariant" : "4.588",
        "epoch_osculation" : "2458000.5",
        "eccentricity" : ".2779089642314824",
        "semi_major_axis" : "1.4264425490884",
        "inclination" : "20.8181528594977",
        "ascending_node_longitude" : "224.0346760816633",
        "orbital_period" : "622.2714188547402",
        "perihelion_distance" : "1.030021377735527",
        "perihelion_argument" : "249.4576210911956",
        "aphelion_distance" : "1.822863720441273",
        "perihelion_time" : "2458184.455871454664",
        "mean_anomaly" : "253.5768031166187",
        "mean_motion" : ".5785256868498995",
        "equinox" : "J2000"
      }
    } ]
  }
}